IRIDIUM 155             
1 43573U 18061E   25244.89734361 -.00000014  00000+0 -12098-4 0  9996
2 43573  86.4041 177.1504 0002167  90.5603 269.5841 14.34217480372035
IRIDIUM 154             
1 43574U 18061F   25245.22717019  .00000592  00000+0  20444-3 0  9998
2 43574  86.4042 177.1318 0002246  83.1776 276.9676 14.34221904372132
IRIDIUM 163             
1 43575U 18061G   25245.06859314 -.00000030  00000+0 -17675-4 0  9998
2 43575  86.4041 177.1225 0001929  85.6545 274.4872 14.34217360372083
IRIDIUM 156             
1 43576U 18061H   25244.90368601  .00000000  00000+0 -69287-5 0  9998
2 43576  86.4042 177.1984 0002318  90.2130 269.9332 14.34217654372055
IRIDIUM 164             
1 43577U 18061J   25245.23350186 -.00000085  00000+0 -37476-4 0  9993
2 43577  86.4043 177.0965 0002262  80.8678 279.2774 14.34216801372142
IRIDIUM 159             
1 43578U 18061K   25245.06223401  .00000530  00000+0  18200-3 0  9990
2 43578  86.4040 177.1107 0002153  78.3355 281.8083 14.34224627372082
IRIDIUM 180             
1 43922U 19002A   25244.99197779  .00000024  00000+0  15150-5 0  9999
2 43922  86.3952 114.1037 0001993  86.5613 273.5811 14.34217696347681
IRIDIUM 176             
1 43923U 19002B   25245.17981291  .00001749  00000+0  27347-3 0  9995
2 43923  86.6076 114.0105 0002487 101.0611 259.0886 14.72255374356876
IRIDIUM 168             
1 43924U 19002C   25245.05540431 -.00000032  00000+0 -18541-4 0  9993
2 43924  86.3954 114.1460 0001976  86.1943 273.9479 14.34217167347674
IRIDIUM 173             
1 43925U 19002D   25245.04271695  .00000006  00000+0 -47568-5 0  9998
2 43925  86.3954 114.0522 0001856  90.1863 269.9545 14.34218295347656
IRIDIUM 169             
1 43926U 19002E   25245.01312604  .00000433  00000+0  13517-3 0  9990
2 43926  86.4276 145.6759 0002350 117.1518 242.9921 14.38610587348793
IRIDIUM 172             
1 43927U 19002F   25245.03637584  .00000034  00000+0  51067-5 0  9991
2 43927  86.3950 114.0619 0001881  81.1744 278.9665 14.34217481347667
IRIDIUM 175             
1 43928U 19002G   25244.97100676  .00000707  00000+0  10822-3 0  9990
2 43928  86.1457  62.2192 0003128  91.7591 268.3983 14.72247602356836
IRIDIUM 171             
1 43929U 19002H   25245.08711812 -.00000035  00000+0 -19398-4 0  9998
2 43929  86.3960 114.3149 0002290  84.1012 276.0445 14.34217118347669
IRIDIUM 170             
1 43930U 19002J   25245.05005793  .00001584  00000+0  24724-3 0  9997
2 43930  86.6075 114.0690 0002398  88.9022 271.2470 14.72259216356865
IRIDIUM 167             
1 43931U 19002K   25245.15054395 -.00000005  00000+0 -90103-5 0  9996
2 43931  86.3950 114.0338 0002398  90.8612 269.2859 14.34217375347676
IRIDIUM 181             
1 56726U 23068S   25244.83484288  .00000614  00000+0  17631-3 0  9998
2 56726  86.4579 177.2498 0002774  75.6991 284.4518 14.43316451120841
IRIDIUM 177             
1 56727U 23068T   25245.06931493  .00002189  00000+0  28443-3 0  9992
2 56727  86.1938 105.6391 0002591  86.3870 273.7648 14.80245858123747
IRIDIUM 174             
1 56728U 23068U   25245.03769331  .00001618  00000+0  25258-3 0  9997
2 56728  86.6083 114.1923 0001905  91.8438 268.2997 14.72262050123626
IRIDIUM 178             
1 56729U 23068V   25244.99081779  .00002632  00000+0  34280-3 0  9997
2 56729  86.6593 145.8039 0002490  89.5837 270.5670 14.80242541123737
IRIDIUM 179             
1 56730U 23068W   25245.18825836  .00002909  00000+0  37926-3 0  9998
2 56730  86.6846 153.8244 0002652  91.4718 268.6808 14.80241783123768
